ISS DEB                 
1 58229U 98067WC  24035.99110089  .00056059  00000+0  69524-3 0  9990
2 58229  51.6369 252.1225 0003900 169.5419 190.5655 15.59472933 14716
PROGRESS-MS 25          
1 58460U 23184A   24036.59700874  .00017453  00000+0  31823-3 0  9995
2 58460  51.6379 252.4088 0002378 207.2271 152.8593 15.49536073437983
BEAK                    
1 58612U 98067WD  24036.02143002  .00056751  00000+0  78657-3 0  9998
2 58612  51.6378 253.8250 0006032 176.5225 183.5810 15.56491770  7646
CLARK SAT-1 (AMBITIOUS) 
1 58613U 98067WE  24036.54396751  .00126080  00000+0  14656-2 0  9998
2 58613  51.6358 250.5652 0008959 202.8278 157.2318 15.60772378  7705
TIANZHOU-7              
1 58811U 24013A   24036.36608808  .00018602  00000+0  20127-3 0  9998
2 58811  41.4670 174.6636 0008465 305.7971  54.2081 15.63100177158303
CZ-7 DEB                
1 58813U 24013C   24018.11402078 -.00002294  72670-5  00000+0 0  9997
2 58813  41.8298 285.9373 0234014 181.6233 328.2070 15.73710950    93
CZ-7 DEB                
1 58814U 24013D   24018.11444661 -.00002240  70950-5  00000+0 0  9992
2 58814  41.6413 286.0086 0240306 187.1577 323.2676 15.72861586    84
AXIOM-3                 
1 58815U 24014A   24036.59700874  .00017453  00000+0  31823-3 0  9992
2 58815  51.6379 252.4088 0002378 207.2271 152.8593 15.49536073437987
CYGNUS NG-20            
1 58898U 24021A   24036.59700874  .00017453  00000+0  31823-3 0  9991
2 58898  51.6379 252.4088 0002378 207.2271 152.8593 15.49536073437988
