[
  {
    "OBJECT_NAME": "ISS DEB",
    "OBJECT_ID": "1998-067WC",
    "EPOCH": "2024-02-04T23:47:11.116896",
    "MEAN_MOTION": 15.59472933,
    "ECCENTRICITY": 0.00039,
    "INCLINATION": 51.6369,
    "RA_OF_ASC_NODE": 252.1225,
    "ARG_OF_PERICENTER": 169.5419,
    "MEAN_ANOMALY": 190.5655,
    "EPHEMERIS_TYPE": 0,
    "CLASSIFICATION_TYPE": "U",
    "NORAD_CAT_ID": 58229,
    "ELEMENT_SET_NO": 999,
    "REV_AT_EPOCH": 1471,
    "BSTAR": 0.00069524,
    "MEAN_MOTION_DOT": 0.00056059,
    "MEAN_MOTION_DDOT": 0
  },
  {
    "OBJECT_NAME": "PROGRESS-MS 25",
    "OBJECT_ID": "2023-184A",
    "EPOCH": "2024-02-05T14:19:41.555136",
    "MEAN_MOTION": 15.49536073,
    "ECCENTRICITY": 0.0002378,
    "INCLINATION": 51.6379,
    "RA_OF_ASC_NODE": 252.4088,
    "ARG_OF_PERICENTER": 207.2271,
    "MEAN_ANOMALY": 152.8593,
    "EPHEMERIS_TYPE": 0,
    "CLASSIFICATION_TYPE": "U",
    "NORAD_CAT_ID": 58460,
    "ELEMENT_SET_NO": 999,
    "REV_AT_EPOCH": 43798,
    "BSTAR": 0.00031823,
    "MEAN_MOTION_DOT": 0.00017453,
    "MEAN_MOTION_DDOT": 0
  },
  {
    "OBJECT_NAME": "BEAK",
    "OBJECT_ID": "1998-067WD",
    "EPOCH": "2024-02-05T00:30:51.553728",
    "MEAN_MOTION": 15.5649177,
    "ECCENTRICITY": 0.0006032,
    "INCLINATION": 51.6378,
    "RA_OF_ASC_NODE": 253.825,
    "ARG_OF_PERICENTER": 176.5225,
    "MEAN_ANOMALY": 183.581,
    "EPHEMERIS_TYPE": 0,
    "CLASSIFICATION_TYPE": "U",
    "NORAD_CAT_ID": 58612,
    "ELEMENT_SET_NO": 999,
    "REV_AT_EPOCH": 764,
    "BSTAR": 0.00078657,
    "MEAN_MOTION_DOT": 0.00056751,
    "MEAN_MOTION_DDOT": 0
  },
  {
    "OBJECT_NAME": "CLARK SAT-1 (AMBITIOUS)",
    "OBJECT_ID": "1998-067WE",
    "EPOCH": "2024-02-05T13:03:18.792864",
    "MEAN_MOTION": 15.60772378,
    "ECCENTRICITY": 0.0008959,
    "INCLINATION": 51.6358,
    "RA_OF_ASC_NODE": 250.5652,
    "ARG_OF_PERICENTER": 202.8278,
    "MEAN_ANOMALY": 157.2318,
    "EPHEMERIS_TYPE": 0,
    "CLASSIFICATION_TYPE": "U",
    "NORAD_CAT_ID": 58613,
    "ELEMENT_SET_NO": 999,
    "REV_AT_EPOCH": 770,
    "BSTAR": 0.0014656,
    "MEAN_MOTION_DOT": 0.0012608,
    "MEAN_MOTION_DDOT": 0
  },
  {
    "OBJECT_NAME": "TIANZHOU-7",
    "OBJECT_ID": "2024-013A",
    "EPOCH": "2024-02-05T08:47:10.010112",
    "MEAN_MOTION": 15.63100177,
    "ECCENTRICITY": 0.0008465,
    "INCLINATION": 41.467,
    "RA_OF_ASC_NODE": 174.6636,
    "ARG_OF_PERICENTER": 305.7971,
    "MEAN_ANOMALY": 54.2081,
    "EPHEMERIS_TYPE": 0,
    "CLASSIFICATION_TYPE": "U",
    "NORAD_CAT_ID": 58811,
    "ELEMENT_SET_NO": 999,
    "REV_AT_EPOCH": 15830,
    "BSTAR": 0.00020127,
    "MEAN_MOTION_DOT": 0.00018602,
    "MEAN_MOTION_DDOT": 0
  },
  {
    "OBJECT_NAME": "CZ-7 DEB",
    "OBJECT_ID": "2024-013C",
    "EPOCH": "2024-01-18T02:44:11.395392",
    "MEAN_MOTION": 15.7371095,
    "ECCENTRICITY": 0.0234014,
    "INCLINATION": 41.8298,
    "RA_OF_ASC_NODE": 285.9373,
    "ARG_OF_PERICENTER": 181.6233,
    "MEAN_ANOMALY": 328.207,
    "EPHEMERIS_TYPE": 0,
    "CLASSIFICATION_TYPE": "U",
    "NORAD_CAT_ID": 58813,
    "ELEMENT_SET_NO": 999,
    "REV_AT_EPOCH": 9,
    "BSTAR": 0,
    "MEAN_MOTION_DOT": -0.00002294,
    "MEAN_MOTION_DDOT": 0.000007267
  },
  {
    "OBJECT_NAME": "CZ-7 DEB",
    "OBJECT_ID": "2024-013D",
    "EPOCH": "2024-01-18T02:44:48.187104",
    "MEAN_MOTION": 15.72861586,
    "ECCENTRICITY": 0.0240306,
    "INCLINATION": 41.6413,
    "RA_OF_ASC_NODE": 286.0086,
    "ARG_OF_PERICENTER": 187.1577,
    "MEAN_ANOMALY": 323.2676,
    "EPHEMERIS_TYPE": 0,
    "CLASSIFICATION_TYPE": "U",
    "NORAD_CAT_ID": 58814,
    "ELEMENT_SET_NO": 999,
    "REV_AT_EPOCH": 8,
    "BSTAR": 0,
    "MEAN_MOTION_DOT": -0.0000224,
    "MEAN_MOTION_DDOT": 0.000007095
  },
  {
    "OBJECT_NAME": "AXIOM-3",
    "OBJECT_ID": "2024-014A",
    "EPOCH": "2024-02-05T14:19:41.555136",
    "MEAN_MOTION": 15.49536073,
    "ECCENTRICITY": 0.0002378,
    "INCLINATION": 51.6379,
    "RA_OF_ASC_NODE": 252.4088,
    "ARG_OF_PERICENTER": 207.2271,
    "MEAN_ANOMALY": 152.8593,
    "EPHEMERIS_TYPE": 0,
    "CLASSIFICATION_TYPE": "U",
    "NORAD_CAT_ID": 58815,
    "ELEMENT_SET_NO": 999,
    "REV_AT_EPOCH": 43798,
    "BSTAR": 0.00031823,
    "MEAN_MOTION_DOT": 0.00017453,
    "MEAN_MOTION_DDOT": 0
  },
  {
    "OBJECT_NAME": "CYGNUS NG-20",
    "OBJECT_ID": "2024-021A",
    "EPOCH": "2024-02-05T14:19:41.555136",
    "MEAN_MOTION": 15.49536073,
    "ECCENTRICITY": 0.0002378,
    "INCLINATION": 51.6379,
    "RA_OF_ASC_NODE": 252.4088,
    "ARG_OF_PERICENTER": 207.2271,
    "MEAN_ANOMALY": 152.8593,
    "EPHEMERIS_TYPE": 0,
    "CLASSIFICATION_TYPE": "U",
    "NORAD_CAT_ID": 58898,
    "ELEMENT_SET_NO": 999,
    "REV_AT_EPOCH": 43798,
    "BSTAR": 0.00031823,
    "MEAN_MOTION_DOT": 0.00017453,
    "MEAN_MOTION_DDOT": 0
  }
]